[Satellite]
VERSION=1.1
NAME=Horyu-4
NICKNAME=Horyu-4
TLE1=1 41340U 16012D   22342.33730467  .00005272  00000+0  35992-3 0  9994
TLE2=2 41340  31.0056 327.7084 0012625 134.8753 225.2910 15.04598517373927
STATUS=0
